1 44726U 19074P   20170.66667824 -.00003010  00000-0 -18743-3 0  9991
2 44726  52.9981 209.0988 0001194  94.5633  29.9337 15.05592379 33915
1 44726U 19074P   20171.41667824 -.00000093  00000-0  12791-4 0  9990
2 44726  52.9980 205.7322 0001258  94.7389 137.1108 15.05585638 34032
1 44726U 19074P   20171.58335648 +.00031620 +00000-0 +21799-2 0  9999
2 44726 052.9980 204.9840 0001183 092.1516 323.6165 15.05575041001765
1 44726U 19074P   20171.66668981 -.00012434  00000-0 -83530-3 0  9993
2 44726  52.9980 204.6094 0001187  93.3032  54.3855 15.05597492 34060
1 44726U 19074P   20171.75001157 -.00039245  00000-0 -26872-2 0  9993
2 44726  52.9981 204.2348 0001178  97.5495 142.0028 15.05608323 34083
1 44726U 19074P   20171.83334491 -.00014620  00000-0 -98592-3 0  9991
2 44726  52.9983 203.8604 0001183 100.6896 230.7971 15.05593693 34098
1 44726U 19074P   20171.91667824 +.00031558 +00000-0 +21759-2 0  9996
2 44726 052.9983 203.4859 0001177 104.0677 319.3538 15.05570982001761
1 44726U 19074P   20172.16667824 -.00016122  00000-0 -10891-2 0  9991
2 44726  52.9982 202.3640 0001244 103.6247 235.5674 15.05605160 34144
1 44726U 19074P   20172.33335648 -.00022895  00000-0 -15564-2 0  9992
2 44726  52.9979 201.6166 0001220  96.9062  66.2122 15.05599288 34171
1 44726U 19074P   20172.33335648 -.00022895  00000-0 -15564-2 0  9992
2 44726  52.9979 201.6166 0001220  96.9062  66.2122 15.05599288 34171
1 44726U 19074P   20172.58335648 +.00023677 +00000-0 +16387-2 0  9990
2 44726 052.9978 200.4946 0001151 091.6821 347.2239 15.05580841001766
1 44726U 19074P   20172.66668981 -.00021571  00000-0 -14649-2 0  9990
2 44726  52.9977 200.1200 0001165  93.9543  76.8735 15.05602758 34221
1 44726U 19074P   20172.83334491 -.00005728  00000-0 -37416-3 0  9999
2 44726  52.9980 199.3710 0001156 101.7201 252.9092 15.05590066 34242
1 44726U 19074P   20172.91668981 +.00035462 +00000-0 +24414-2 0  9991
2 44726 052.9980 198.9966 0001131 104.4402 342.1859 15.05570923001760
1 44726U 19074P   20173.25001157 -.00023845  00000-0 -16217-2 0  9991
2 44726  52.9977 197.5011 0001172 101.2512 353.0149 15.05606909 34307
1 44726U 19074P   20173.33335648 -.00019710  00000-0 -13367-2 0  9994
2 44726  52.9976 197.1274 0001161  97.2910  88.9720 15.05597253 34329
1 44726U 19074P   20173.66667824 -.00028667  00000-0 -19549-2 0  9993
2 44726  52.9974 195.6305 0001114  95.6477  98.2614 15.05606572 34379
1 44726U 19074P   20173.58335648 +.00015038 +00000-0 +10489-2 0  9990
2 44726 052.9974 196.0051 0001089 092.2174 009.8319 15.05585633034352
1 44726U 19074P   20173.83334491  .00003655  00000-0  27005-3 0  9998
2 44726  52.9976 194.8816 0001237 102.1207 275.6499 15.05557442 34395
1 44726U 19074P   20173.91667824 +.00036119 +00000-0 +24879-2 0  9992
2 44726 052.9975 194.5073 0001210 104.1200 005.5737 15.05542541001766
1 44726U 19074P   20174.08334491  .00004311  00000-0  31496-3 0  9995
2 44726  52.9976 193.7592 0001284 105.0864 188.4354 15.05567744 34439
1 44726U 19074P   20174.16667824 -.00028050  00000-0 -19135-2 0  9996
2 44726  52.9976 193.3856 0001252 102.3392 283.1005 15.05581506 34448
1 44726U 19074P   20174.33334491 -.00014780  00000-0 -99779-3 0  9994
2 44726  52.9971 192.6382 0001270  96.8188 112.4632 15.05562443 34471
1 44726U 19074P   20174.50001157  .00040679  00000-0  27980-2 0  9991
2 44726  52.9972 191.8902 0001217  93.5147 299.6102 15.05540241 34495
1 44726U 19074P   20174.66667824 -.00034697  00000-0 -23741-2 0  9993
2 44726  52.9971 191.1412 0001202  95.9521 120.9978 15.05575462 34523
1 44726U 19074P   20174.25001157 -.00031849 +00000-0 -21768-2 0  9992
2 44726 052.9972 193.0119 0001270 100.3773 016.9801 15.05575119001762
1 44726U 19074P   20174.83335648  .00012914  00000-0  90463-3 0  9990
2 44726  52.9973 190.3922 0001216 102.8120 298.0495 15.05549025 34549
1 44726U 19074P   20174.91667824 +.00035577 +00000-0 +24512-2 0  9994
2 44726 052.9971 190.0180 0001219 103.9945 028.7248 15.05540590001759
1 44726U 19074P   20175.08335648  .00068986  00000-0  47073-2 0  9996
2 44726  52.9972 189.2700 0001431 103.9456 212.6721 15.05583035 34589
1 44726U 19074P   20175.08335648  .00068986  00000-0  47073-2 0  9996
2 44726  52.9972 189.2700 0001431 103.9456 212.6721 15.05583035 34589
1 44726U 19074P   20175.08335648  .00068986  00000-0  47073-2 0  9996
2 44726  52.9972 189.2700 0001431 103.9456 212.6721 15.05583035 34589
1 44726U 19074P   20175.25002315 -.00029481  00000-0 -20113-2 0  9992
2 44726  52.9969 188.5226 0001412  98.0591  42.4152 15.05603097 34604
1 44726U 19074P   20175.41668981  .00034192  00000-0  23548-2 0  9995
2 44726  52.9972 187.7750 0001412  93.2553 231.0839 15.05574432 34637
1 44726U 19074P   20175.83334491  .00021474  00000-0  14886-2 0  9991
2 44726  52.9974 185.9028 0001347 100.7430 323.1742 15.05576272 34698
1 44726U 19074P   20176.00002315  .00024732  00000-0  17105-2 0  9995
2 44726  52.9972 185.1542 0001425 102.4499 145.3790 15.05582208 34727
1 44726U 19074P   20175.91667824 +.00037335 +00000-0 +25686-2 0  9992
2 44726 052.9971 185.5284 0001370 101.5070 054.3370 15.05570913001768
1 44726U 19074P   20176.08334491 -.00007829  00000-0 -51843-3 0  9994
2 44726  52.9974 184.7806 0001432 101.5718 238.1165 15.05600515 34739
1 44726U 19074P   20176.66667824 -.00038615  00000-0 -26433-2 0  9990
2 44726  52.9978 182.1622 0001348  92.8739 170.3137 15.05610486 34826
1 44726U 19074P   20176.58334491 -.00008658 +00000-0 -57551-3 0  9992
2 44726 052.9976 182.5368 0001359 089.7098 081.5515 15.05597750001768
1 44726U 19074P   20176.83334491  .00027109  00000-0  18728-2 0  9992
2 44726  52.9980 181.4133 0001347  98.6807 348.3775 15.05575416 34847
1 44726U 19074P   20177.00001157  .00022254  00000-0  15414-2 0  9997
2 44726  52.9980 180.6649 0001434 100.5875 170.3180 15.05586168 34877
1 44726U 19074P   20177.00001157  .00022254  00000-0  15414-2 0  9997
2 44726  52.9980 180.6649 0001434 100.5875 170.3180 15.05586168 34877
1 44726U 19074P   20176.91668981 +.00036554 +00000-0 +25153-2 0  9999
2 44726 052.9978 181.0389 0001383 099.6251 079.4231 15.05575014001811
1 44726U 19074P   20177.16667824 -.00033499  00000-0 -22889-2 0  9992
2 44726  52.9980 179.9177 0001432  95.6974 359.0616 15.05610532 34891
1 44726U 19074P   20177.41668981  .00034910  00000-0  24036-2 0  9998
2 44726  52.9983 178.7962 0001416  88.5838 282.0380 15.05574634 34935
1 44726U 19074P   20177.50001157  .00030118  00000-0  20774-2 0  9995
2 44726  52.9982 178.4220 0001369  87.0686  15.4162 15.05580340 34948
1 44726U 19074P   20177.58334491 -.00017373 +00000-0 -11753-2 0  9990
2 44726 052.9983 178.0474 0001371 088.5585 105.8468 15.05604072001769
1 44726U 19074P   20177.83334491  .00031809  00000-0  21927-2 0  9990
2 44726  52.9987 176.9239 0001347  97.1330  13.0726 15.05575666 34990
1 44726U 19074P   20177.83334491  .00031809  00000-0  21927-2 0  9990
2 44726  52.9987 176.9239 0001347  97.1330  13.0726 15.05575666 34990
1 44726U 19074P   20177.91668981 +.00033762 +00000-0 +23253-2 0  9997
2 44726 052.9986 176.5495 0001393 098.2844 103.9105 15.05578886001814
1 44726U 19074P   20178.16667824 -.00044189  00000-0 -30318-2 0  9997
2 44726  52.9987 175.4284 0001534  94.1690  23.7440 15.05588866 35042
1 44726U 19074P   20178.16667824 -.00044189  00000-0 -30318-2 0  9997
2 44726  52.9987 175.4284 0001534  94.1690  23.7440 15.05588866 35042
1 44726U 19074P   20178.33335648  .00006462  00000-0  46254-3 0  9999
2 44726  52.9988 174.6809 0001568  88.9328 212.8968 15.05557941 35072
1 44726U 19074P   20178.41668981  .00037849  00000-0  26053-2 0  9994
2 44726  52.9988 174.3070 0001540  88.1918 305.5615 15.05545322 35086
1 44726U 19074P   20178.58335648 -.00012086 +00000-0 -81183-3 0  9997
2 44726 052.9988 173.5581 0001508 089.6824 127.8967 15.05574163001757
1 44726U 19074P   20178.66667824 -.00034116  00000-0 -23336-2 0  9993
2 44726  52.9990 173.1837 0001493  92.1681 217.2690 15.05579111 35126
1 44726U 19074P   20178.83334491  .00034676  00000-0  23897-2 0  9994
2 44726  52.9990 172.4349 0001484  96.8706  36.4186 15.05543835 35142
1 44726U 19074P   20178.91667824 +.00031768 +00000-0 +21915-2 0  9990
2 44726 052.9990 172.0606 0001538 098.5975 126.6065 15.05548531001757
1 44726U 19074P   20179.16667824 -.00031740  00000-0 -21690-2 0  9990
2 44726  52.9989 170.9395 0001550  93.9785  46.9796 15.05578613 35193
1 44726U 19074P   20179.33335648  .00016225  00000-0  11310-2 0  9992
2 44726  52.9989 170.1920 0001554  89.8810 234.9884 15.05552775 35228
1 44726U 19074P   20179.50002315  .00011308  00000-0  79447-3 0  9996
2 44726  52.9986 169.4437 0001492  88.2390  60.4664 15.05559042 35240
1 44726U 19074P   20179.66667824 -.00031612  00000-0 -21603-2 0  9997
2 44726  52.9989 168.6947 0001476  93.8340 238.6449 15.05576591 35270
1 44726U 19074P   20179.25001157 -.00016631 +00000-0 -11253-2 0  9997
2 44726 052.9988 170.5659 0001536 091.5782 141.3048 15.05567219001762
1 44726U 19074P   20179.91667824  .00092997  00000-0  63199-2 0  9992
2 44726  52.9986 167.5717 0001395 102.1073 146.1342 15.05569522 35313
1 44726U 19074P   20180.16667824 -.00028613  00000-0 -19510-2 0  9995
2 44726  52.9985 166.4506 0001378  95.2189  68.8058 15.05608894 35351
1 44726U 19074P   20180.33334491  .00017146  00000-0  11928-2 0  9997
2 44726  52.9985 165.7031 0001379  90.9420 256.9547 15.05587577 35376
1 44726U 19074P   20180.50001157  .00002050  00000-0  15977-3 0  9993
2 44726  52.9982 164.9545 0001319  89.5653  82.1873 15.05599975 35400
1 44726U 19074P   20180.25001157 -.00010340 +00000-0 -69113-3 0  9999
2 44726 052.9984 166.0769 0001376 092.7209 163.2418 15.05600267001764
1 44726U 19074P   20180.75001157  .00017514  00000-0  12180-2 0  9993
2 44726  52.9983 163.8311 0001320  99.0621 348.4869 15.05585985 35435
1 44726U 19074P   20180.91667824 +.00025505 +00000-0 +17629-2 0  9992
2 44726 052.9981 163.0824 0001380 101.5109 169.8937 15.05588003001753
1 44726U 19074P   20181.16667824 -.00025076  00000-0 -17066-2 0  9990
2 44726  52.9979 161.9614 0001373  94.7668  92.4278 15.05608541 35508
